<?xml version="1.0"?>
<gpx xmlns:wptx1="http://www.garmin.com/xmlschemas/WaypointExtension/v1" xmlns:gpxedw="http://www.gpxeditor.co.uk/xmlschemas/WaypointExtension/v1" xmlns:gpxedts="http://www.gpxeditor.co.uk/xmlschemas/TrackSegExtension/v1" xmlns:gpxx="http://www.garmin.com/xmlschemas/GpxExtensions/v3" creator="GPXEditor" version="1.1" xmlns="http://www.topografix.com/GPX/1/1">
  <wpt lat="39.224481" lon="9.2300707">
    <name>Cagliari Margine Rosso (test)</name>
    <description>https://radar.com/dashboard/manage?project=60e4cd80cf0fcb008ba0d2fb&live=true&view=geofences&tag=it.test.carrefour.stg</description>
  </wpt>
</gpx>

